NORAD_CAT_ID,OBJECT_NAME,OBJECT_TYPE,EPOCH,MEAN_MOTION,ECCENTRICITY,INCLINATION,RA_OF_ASC_NODE,ARG_OF_PERICENTER,MEAN_ANOMALY,BSTAR,MEAN_MOTION_DOT,MEAN_MOTION_DDOT,TLE_LINE0,TLE_LINE1,TLE_LINE2,SEMIMAJOR_AXIS,PERIOD,APOGEE,PERIGEE,DECAYED
52303.0,STARLINK-3742,PAYLOAD,2023-10-21 14:21:04,15.08850717,2.61e-05,53.2172,45.1151,257.4916,102.6047,0.00024232,3.572e-05,0.0,0 STARLINK-3742,1 52303U 22041AU  23294.59797065  .00003572  00000-0  24232-3 0  9993,2 52303  53.2172  45.1151 0000261 257.4916 102.6047 15.08850717 84379,6917.848,95.437,539.893,539.532,0.0
52303.0,STARLINK-3742,PAYLOAD,2023-10-21 17:31:51,15.08846857,0.0001559,53.2177,44.5203,103.1809,256.9357,0.00034489,5.206e-05,0.0,0 STARLINK-3742,1 52303U 22041AU  23294.73045774  .00005206  00000-0  34489-3 0  9993,2 52303  53.2177  44.5203 0001559 103.1809 256.9357 15.08846857 84393,6917.859,95.437,540.803,538.646,0.0
52303.0,STARLINK-3742,PAYLOAD,2023-10-21 20:42:37,15.08856805,0.0001281,53.2179,43.9257,107.977,252.1362,0.00045954,7.037e-05,0.0,0 STARLINK-3742,1 52303U 22041AU  23294.86293006  .00007037  00000-0  45954-3 0  9993,2 52303  53.2179  43.9257 0001281 107.9770 252.1362 15.08856805 84419,6917.829,95.436,540.58,538.808,0.0
52303.0,STARLINK-3742,PAYLOAD,2023-10-21 23:53:25,15.08821171,0.0001409,53.219,43.3307,82.4472,277.6681,-5.9982e-05,-1.242e-05,0.0,0 STARLINK-3742,1 52303U 22041AU  23294.99543011 -.00001242  00000-0 -59982-4 0  9992,2 52303  53.2190  43.3307 0001409  82.4472 277.6681 15.08821171 84436,6917.938,95.439,540.778,538.828,0.0
52303.0,STARLINK-3742,PAYLOAD,2023-10-22 14:11:53,15.08830771,0.0001407,53.2169,40.6559,84.1042,276.011,0.000131,1.797e-05,0.0,0 STARLINK-3742,1 52303U 22041AU  23295.59159149  .00001797  00000-0  13100-3 0  9998,2 52303  53.2169  40.6559 0001407  84.1042 276.0110 15.08830771 84527,6917.909,95.438,540.747,538.8,0.0
52303.0,STARLINK-3742,PAYLOAD,2023-10-23 14:02:40,15.08842269,0.0001401,53.2166,36.1964,79.7627,280.3523,0.00043579,6.655e-05,0.0,0 STARLINK-3742,1 52303U 22041AU  23296.58519062  .00006655  00000-0  43579-3 0  9993,2 52303  53.2166  36.1964 0001401  79.7627 280.3523 15.08842269 84674,6917.873,95.437,540.708,538.769,0.0
52303.0,STARLINK-3742,PAYLOAD,2023-10-24 12:18:04,15.0884034,0.0001532,53.2176,32.0322,77.6707,282.4456,0.00015089,2.114e-05,0.0,0 STARLINK-3742,1 52303U 22041AU  23297.51255210  .00002114  00000-0  15089-3 0  9990,2 52303  53.2176  32.0322 0001532  77.6707 282.4456 15.08840340 84811,6917.879,95.438,540.804,538.685,0.0
52303.0,STARLINK-3742,PAYLOAD,2023-10-25 12:08:51,15.08843093,0.000174,53.2187,27.573,97.125,262.994,0.00030632,4.591e-05,0.0,0 STARLINK-3742,1 52303U 22041AU  23298.50615065  .00004591  00000-0  30632-3 0  9990,2 52303  53.2187  27.5730 0001740  97.1250 262.9940 15.08843093 84961,6917.871,95.437,540.94,538.532,0.0
52303.0,STARLINK-3742,PAYLOAD,2023-10-25 23:16:33,15.08844137,0.0001486,53.2183,25.4917,85.8589,274.2573,9.5593e-05,1.234e-05,0.0,0 STARLINK-3742,1 52303U 22041AU  23298.96982900  .00001234  00000-0  95593-4 0  9994,2 52303  53.2183  25.4917 0001486  85.8589 274.2573 15.08844137 85034,6917.868,95.437,540.761,538.705,0.0
52303.0,STARLINK-3742,PAYLOAD,2023-10-26 11:59:38,15.0884387,0.0001656,53.2181,23.1139,88.9293,271.1888,6.4286e-05,7.35e-06,0.0,0 STARLINK-3742,1 52303U 22041AU  23299.49975092  .00000735  00000-0  64286-4 0  9997,2 52303  53.2181  23.1139 0001656  88.9293 271.1888 15.08843870 85115,6917.869,95.437,540.879,538.588,0.0
52303.0,STARLINK-3742,PAYLOAD,2023-10-27 05:28:52,15.08851362,0.0001922,53.2189,19.8427,86.6306,273.4906,0.00028355,4.229e-05,0.0,0 STARLINK-3742,1 52303U 22041AU  23300.22838791  .00004229  00000-0  28355-3 0  9993,2 52303  53.2189  19.8427 0001922  86.6306 273.4906 15.08851362 85224,6917.846,95.437,541.04,538.381,0.0
52303.0,STARLINK-3742,PAYLOAD,2023-10-27 11:50:24,15.08863192,0.0001554,53.2178,18.6519,94.927,265.1899,0.00044831,6.859e-05,0.0,0 STARLINK-3742,1 52303U 22041AU  23300.49333967  .00006859  00000-0  44831-3 0  9995,2 52303  53.2178  18.6519 0001554  94.9270 265.1899 15.08863192 85261,6917.81,95.436,540.75,538.599,0.0
52303.0,STARLINK-3742,PAYLOAD,2023-10-27 15:01:10,15.08866689,0.000151,53.2179,18.0575,92.3995,267.717,0.0005004,7.691e-05,0.0,0 STARLINK-3742,1 52303U 22041AU  23300.62581700  .00007691  00000-0  50040-3 0  9994,2 52303  53.2179  18.0575 0001510  92.3995 267.7170 15.08866689 85282,6917.799,95.436,540.708,538.619,0.0
52303.0,STARLINK-3742,PAYLOAD,2023-10-28 11:41:12,15.08830242,0.0001574,53.2173,14.191,80.2805,279.8365,-7.8156e-05,-1.531e-05,0.0,0 STARLINK-3742,1 52303U 22041AU  23301.48695515 -.00001531  00000-0 -78156-4 0  9997,2 52303  53.2173  14.1910 0001574  80.2805 279.8365 15.08830242 85413,6917.91,95.438,540.864,538.686,0.0
52303.0,STARLINK-3742,PAYLOAD,2023-10-28 14:51:59,15.08832752,0.0001661,53.2174,13.5958,82.7655,277.3526,-3.9682e-05,-9.19e-06,0.0,0 STARLINK-3742,1 52303U 22041AU  23301.61943502 -.00000919  00000-0 -39682-4 0  9994,2 52303  53.2174  13.5958 0001661  82.7655 277.3526 15.08832752 85438,6917.903,95.438,540.917,538.618,0.0
52303.0,STARLINK-3742,PAYLOAD,2023-10-29 05:10:26,15.08847522,0.0001716,53.218,10.9195,85.8202,274.2986,0.00030062,4.501e-05,0.0,0 STARLINK-3742,1 52303U 22041AU  23302.21559010  .00004501  00000-0  30062-3 0  9999,2 52303  53.2180  10.9195 0001716  85.8202 274.2986 15.08847522 85529,6917.857,95.437,540.91,538.535,0.0
52303.0,STARLINK-3742,PAYLOAD,2023-10-29 11:31:58,15.08872827,0.0001721,53.2178,9.7302,79.9206,280.1981,0.00075033,0.00011684,0.0,0 STARLINK-3742,1 52303U 22041AU  23302.48053877  .00011684  00000-0  75033-3 0  9995,2 52303  53.2178   9.7302 0001721  79.9206 280.1981 15.08872827 85567,6917.78,95.435,540.836,538.455,0.0
52303.0,STARLINK-3742,PAYLOAD,2023-10-29 21:04:18,15.08847694,0.0001821,53.218,7.9461,77.3389,282.7806,0.00021958,3.209e-05,0.0,0 STARLINK-3742,1 52303U 22041AU  23302.87798641  .00003209  00000-0  21958-3 0  9994,2 52303  53.2180   7.9461 0001821  77.3389 282.7806 15.08847694 85626,6917.857,95.437,540.982,538.462,0.0
52303.0,STARLINK-3742,PAYLOAD,2023-10-30 05:01:14,15.08825407,0.0001593,53.2177,6.4595,80.7047,279.4125,-0.00012116,-2.215e-05,0.0,0 STARLINK-3742,1 52303U 22041AU  23303.20919626 -.00002215  00000-0 -12116-3 0  9994,2 52303  53.2177   6.4595 0001593  80.7047 279.4125 15.08825407 85679,6917.925,95.438,540.892,538.688,0.0
52303.0,STARLINK-3742,PAYLOAD,2023-10-30 12:58:09,15.0883805,0.000189,53.2182,4.9761,83.4345,276.6862,2.6313e-05,1.31e-06,0.0,0 STARLINK-3742,1 52303U 22041AU  23303.54039326  .00000131  00000-0  26313-4 0  9999,2 52303  53.2182   4.9761 0001890  83.4345 276.6862 15.08838050 85725,6917.886,95.438,541.059,538.444,0.0
52303.0,STARLINK-3742,PAYLOAD,2023-10-30 20:55:05,15.08833389,0.0001795,53.2178,3.4887,83.0506,277.069,-9.0162e-05,-1.723e-05,0.0,0 STARLINK-3742,1 52303U 22041AU  23303.87159631 -.00001723  00000-0 -90162-4 0  9990,2 52303  53.2178   3.4887 0001795  83.0506 277.0690 15.08833389 85771,6917.901,95.438,541.007,538.524,0.0
52303.0,STARLINK-3742,PAYLOAD,2023-10-31 14:24:20,15.08839734,0.0001893,53.2171,0.216,91.7431,268.3778,0.00010694,1.414e-05,0.0,0 STARLINK-3742,1 52303U 22041AU  23304.60023750  .00001414  00000-0  10694-3 0  9990,2 52303  53.2171   0.2160 0001893  91.7431 268.3778 15.08839734 85887,6917.881,95.438,541.056,538.437,0.0
52303.0,STARLINK-3742,PAYLOAD,2023-10-31 20:45:53,15.08834653,0.000167,53.216,359.0249,87.246,272.8723,0.00025319,3.743e-05,0.0,0 STARLINK-3742,1 52303U 22041AU  23304.86520148  .00003743  00000-0  25319-3 0  9998,2 52303  53.2160 359.0249 0001670  87.2460 272.8723 15.08834653 85923,6917.897,95.438,540.917,538.606,0.0
52303.0,STARLINK-3742,PAYLOAD,2023-11-01 12:39:44,15.08857363,0.0001719,53.2172,356.0534,95.0427,265.0761,0.00063778,9.882e-05,0.0,0 STARLINK-3742,1 52303U 22041AU  23305.52759543  .00009882  00000-0  63778-3 0  9996,2 52303  53.2172 356.0534 0001719  95.0427 265.0761 15.08857363 86025,6917.827,95.436,540.881,538.503,0.0
52303.0,STARLINK-3742,PAYLOAD,2023-11-01 20:36:40,15.08848551,0.0002029,53.217,354.5648,82.5547,277.5675,0.00035496,5.367e-05,0.0,0 STARLINK-3742,1 52303U 22041AU  23305.85879807  .00005367  00000-0  35496-3 0  9998,2 52303  53.2170 354.5648 0002029  82.5547 277.5675 15.08848551 86077,6917.854,95.437,541.123,538.316,0.0
52303.0,STARLINK-3742,PAYLOAD,2023-11-02 12:30:31,15.08851988,0.0001682,53.2163,351.5918,84.8689,275.2495,0.00028871,4.311e-05,0.0,0 STARLINK-3742,1 52303U 22041AU  23306.52119481  .00004311  00000-0  28871-3 0  9995,2 52303  53.2163 351.5918 0001682  84.8689 275.2495 15.08851988 86176,6917.844,95.437,540.872,538.545,0.0
52303.0,STARLINK-3742,PAYLOAD,2023-11-03 02:48:59,15.08833216,0.0001318,53.2186,348.9134,98.123,261.9911,-0.00010808,-2.007e-05,0.0,0 STARLINK-3742,1 52303U 22041AU  23307.11736098 -.00002007  00000-0 -10808-3 0  9993,2 52303  53.2186 348.9134 0001318  98.1230 261.9911 15.08833216 86266,6917.901,95.438,540.678,538.854,0.0
52303.0,STARLINK-3742,PAYLOAD,2023-11-03 09:10:32,15.08840663,0.000194,53.2173,347.7257,99.8496,260.2716,0.00021868,3.194e-05,0.0,0 STARLINK-3742,1 52303U 22041AU  23307.38232026  .00003194  00000-0  21868-3 0  9998,2 52303  53.2173 347.7257 0001940  99.8496 260.2716 15.08840663 86302,6917.878,95.438,541.085,538.401,0.0
52303.0,STARLINK-3742,PAYLOAD,2023-11-04 09:01:19,15.08846869,0.0001815,53.2167,343.266,92.5109,267.6091,0.00033428,5.037e-05,0.0,0 STARLINK-3742,1 52303U 22041AU  23308.37592080  .00005037  00000-0  33428-3 0  9990,2 52303  53.2167 343.2660 0001815  92.5109 267.6091 15.08846869 86453,6917.859,95.437,540.98,538.469,0.0
52303.0,STARLINK-3742,PAYLOAD,2023-11-05 12:02:52,15.08856741,0.0001972,53.2175,338.2078,101.6863,258.435,0.0003748,5.685e-05,0.0,0 STARLINK-3742,1 52303U 22041AU  23309.50199455  .00005685  00000-0  37480-3 0  9996,2 52303  53.2175 338.2078 0001972 101.6863 258.4350 15.08856741 86627,6917.829,95.436,541.058,538.33,0.0
